STARLINK-4700           
1 53722U 22107Y   23360.99122735 -.00000028  00000+0  16342-4 0  9993
2 53722  53.2173 261.9735 0002333 143.9608 216.1541 15.08841556 73077
STARLINK-4705           
1 53723U 22107Z   23361.09791791  .00002472  00000+0  17332-3 0  9993
2 53723  53.2175 261.2340 0001334 109.2928 250.8209 15.08847985 73242
STARLINK-4663           
1 53724U 22107AA  23361.11265209  .00001734  00000+0  12702-3 0  9993
2 53724  53.2179 261.3120 0001614 102.7448 257.3724 15.08845744 73100
STARLINK-4697           
1 53726U 22107AC  23361.05378161  .00000870  00000+0  72756-4 0  9996
2 53726  53.2163 261.6610 0001382  91.5426 268.5724 15.08849543 73098
STARLINK-4701           
1 53727U 22107AD  23360.99860134  .00000251  00000+0  33852-4 0  9992
2 53727  53.2163 262.0267 0001518 102.4663 257.6499 15.08845017 73223
STARLINK-4640           
1 53728U 22107AE  23360.99491340  .00000610  00000+0  56434-4 0  9992
2 53728  53.2162 262.0000 0001492  94.4990 265.6173 15.08846194 73227
STARLINK-4651           
1 53729U 22107AF  23361.14213385  .00000456  00000+0  46743-4 0  9992
2 53729  53.2166 261.4957 0001729  97.4936 262.6252 15.08842907 73270
STARLINK-4641           
1 53730U 22107AG  23361.00228588  .00005866  00000+0  38610-3 0  9993
2 53730  53.2174 262.0435 0001687  92.2201 267.8984 15.08864699 73226
STARLINK-4636           
1 53731U 22107AH  23361.14581641  .00001163  00000+0  91124-4 0  9997
2 53731  53.2167 261.5178 0001633  94.6126 265.5052 15.08841036 73276
STARLINK-4661           
1 53732U 22107AJ  23361.13940286  .00003981  00000+0  26794-3 0  9991
2 53732  53.2167 261.4795 0001396  90.3518 269.7634 15.08857750 73244
STARLINK-4574           
1 53733U 22107AK  23361.15318778  .00001777  00000+0  12968-3 0  9998
2 53733  53.2164 261.5652 0001629  92.7667 267.3511 15.08847102 73276
STARLINK-4616           
1 53734U 22107AL  23361.13844517  .00003840  00000+0  25915-3 0  9991
2 53734  53.2165 261.4768 0001877 116.3861 243.7324 15.08851684 73279
STARLINK-4618           
1 53735U 22107AM  23360.98293862  .00002461  00000+0  17266-3 0  9993
2 53735  53.2166 271.9090 0002156 119.4766 240.6442 15.08839621 73111
STARLINK-4652           
1 53736U 22107AN  23361.14950345  .00000988  00000+0  80131-4 0  9993
2 53736  53.2160 261.5434 0001580  94.3707 265.7466 15.08844104 73272
STARLINK-4646           
1 53737U 22107AP  23361.05286445  .00000355  00000+0  40407-4 0  9997
2 53737  53.2175 271.6400 0001560  95.6431 264.4739 15.08854932 73279
STARLINK-4662           
1 53738U 22107AQ  23361.04549292  .00005209  00000+0  34508-3 0  9996
2 53738  53.2170 271.5919 0001576  87.7059 272.4114 15.08847140 73127
STARLINK-4607           
1 53740U 22107AS  23361.05654630  .00006555  00000+0  42948-3 0  9995
2 53740  53.2161 271.6597 0001381 106.2266 253.8878 15.08847344 73276
STARLINK-4614           
1 53741U 22107AT  23361.10119005  .00000215  00000+0  31616-4 0  9992
2 53741  53.2168 256.3394 0001683  92.3444 267.7740 15.08838126 73491
STARLINK-4637           
1 53742U 22107AU  23361.19271255  .00000802  00000+0  68475-4 0  9993
2 53742  53.2164 271.0875 0001874 113.4118 246.7072 15.08838287 73292
STARLINK-4645           
1 53743U 22107AV  23361.14121038  .00006729  00000+0  44050-3 0  9998
2 53743  53.2164 271.4809 0001354  93.8735 266.2411 15.08837161 73286
STARLINK-4670           
1 53744U 22107AW  23361.16323187  .00006069  00000+0  39890-3 0  9993
2 53744  53.2162 270.9154 0001483 103.8897 256.2260 15.08853729 73296
STARLINK-4656           
1 53745U 22107AX  23361.14489794  .00002537  00000+0  17744-3 0  9999
2 53745  53.2163 271.5062 0001500  93.3359 266.7805 15.08839593 73282
STARLINK-4589           
1 53746U 22107AY  23361.07128696  .00003252  00000+0  22234-3 0  9998
2 53746  53.2168 271.7560 0001368  96.7017 263.4131 15.08839514 73271
STARLINK-4669           
1 53748U 22107BA  23361.14778546  .00041005  00000+0  25476-2 0  9991
2 53748  53.2153 271.5236 0001718 119.5854 240.5310 15.09296132 73287
STARLINK-4680           
1 53749U 22107BB  23361.01978564  .00005650  00000+0  37279-3 0  9991
2 53749  53.2158 272.1116 0001746  63.6036 296.5135 15.08843209 73265
STARLINK-4612           
1 53750U 22107BC  23361.02347654  .00003825  00000+0  25832-3 0  9998
2 53750  53.2173 272.1580 0001931  76.0760 284.0446 15.08838223 73275
SHERPA-LTC2             
1 53754U 22107BG  23361.41884953  .00008550  00000+0  50513-3 0  9997
2 53754  53.2423  39.8365 0453533 249.5936 105.5781 14.53749775 70455
STARLINK-4718           
1 53773U 22111A   23361.24238660  .00003891  00000+0  26234-3 0  9998
2 53773  53.2170 290.8558 0001738 113.7262 246.3913 15.08850326 72558
STARLINK-4719           
1 53774U 22111B   23361.10622599  .00003648  00000+0  24713-3 0  9992
2 53774  53.2177 291.4298 0001844 100.3821 259.7379 15.08847640 72396
STARLINK-4722           
1 53775U 22111C   23361.07039463  .00024028  00000+0  15222-2 0  9990
2 53775  53.2169 281.9439 0001797  91.5884 268.5314 15.08851304 72373
STARLINK-4708           
1 53776U 22111D   23361.19783317  .00000003  00000+0  18258-4 0  9999
2 53776  53.2185 286.3010 0001481  78.3377 281.7781 15.08842430 72607
STARLINK-4664           
1 53777U 22111E   23361.06301782  .00002480  00000+0  17383-3 0  9996
2 53777  53.2181 281.8918 0001767  92.1409 267.9785 15.08847270 72379
STARLINK-4709           
1 53778U 22111F   23361.22258559  .00009208  00000+0  59568-3 0  9994
2 53778  53.2171 285.7501 0001678 104.5102 255.6076 15.08852444 72331
STARLINK-4706           
1 53779U 22111G   23361.19181673  .00004669  00000+0  31120-3 0  9993
2 53779  53.2161 281.2804 0001696  92.4499 267.6687 15.08849722 72394
STARLINK-4678           
1 53780U 22111H   23361.06670240  .00002079  00000+0  14864-3 0  9993
2 53780  53.2176 281.9187 0001729  92.9581 267.1609 15.08848711 72371
STARLINK-4462           
1 53781U 22111J   23361.04825484  .00009468  00000+0  61142-3 0  9994
2 53781  53.2170 281.8040 0001434  94.5066 265.6090 15.08883472 72372
STARLINK-4679           
1 53782U 22111K   23361.05564670  .00001174  00000+0  91847-4 0  9995
2 53782  53.2179 281.8479 0001812  96.8469 263.2729 15.08850340 72371
STARLINK-4536           
1 53783U 22111L   23361.10715031  .00002652  00000+0  18460-3 0  9992
2 53783  53.2166 281.4658 0001571  76.2719 283.8448 15.08846352 72380
STARLINK-4687           
1 53784U 22111M   23361.05196777 -.00000747  00000+0 -28819-4 0  9992
2 53784  53.2173 281.8311 0001610 100.9466 259.1707 15.08845003 72372
STARLINK-4631           
1 53786U 22111P   23361.14581431  .00003252  00000+0  22228-3 0  9998
2 53786  53.2180 271.1317 0001458  85.2962 274.8197 15.08842138 72537
STARLINK-4743           
1 53787U 22111Q   23361.16601702  .00002194  00000+0  15586-3 0  9998
2 53787  53.2176 281.1180 0001731 117.2042 242.9127 15.08849096 72394
STARLINK-4666           
1 53789U 22111S   23361.08873549  .00016629  00000+0  10598-2 0  9996
2 53789  53.2174 281.3528 0001749  86.2281 273.8911 15.08860937 72370
STARLINK-4734           
1 53790U 22111T   23361.10346573  .00000335  00000+0  39136-4 0  9991
2 53790  53.2173 281.4404 0001492  81.6634 278.4527 15.08848165 72385
STARLINK-4739           
1 53792U 22111V   23361.16233536  .00001139  00000+0  89612-4 0  9990
2 53792  53.2171 281.0974 0001636  97.8292 262.2886 15.08848060 72385
STARLINK-4728           
1 53793U 22111W   23361.22584447  .00001426  00000+0  10767-3 0  9991
2 53793  53.2179 280.7807 0001615  96.8280 263.2896 15.08849074 72397
STARLINK-4730           
1 53794U 22111X   23361.16697493  .00002292  00000+0  16202-3 0  9993
2 53794  53.2169 281.1214 0001384  95.4604 264.6546 15.08850738 72387
STARLINK-4742           
1 53795U 22111Y   23361.15128029  .00001636  00000+0  12087-3 0  9995
2 53795  53.2180 281.0259 0001692 108.1994 251.9182 15.08843673 72380
STARLINK-4721           
1 53796U 22111Z   23360.89184318  .00008567  00000+0  55644-3 0  9995
2 53796  53.2164 262.1785 0001691  97.6671 262.4513 15.08790375 71902
STARLINK-4723           
1 53797U 22111AA  23361.07398638  .00001977  00000+0  14223-3 0  9995
2 53797  53.2177 281.2552 0001716  98.5734 261.5452 15.08847942 72365
STARLINK-4712           
1 53798U 22111AB  23361.07767109  .00001998  00000+0  14354-3 0  9997
2 53798  53.2184 281.2743 0001626  91.7247 268.3932 15.08846496 72361
STARLINK-4710           
1 53799U 22111AC  23361.05384665  .00008385  00000+0  54414-3 0  9996
2 53799  53.2173 271.8550 0001646  98.9095 261.2084 15.08849637 72497
STARLINK-4720           
1 53800U 22111AD  23361.17429906 -.00004318  00000+0 -25339-3 0  9998
2 53800  53.2173 271.1879 0001265  85.8614 274.2523 15.08837922 72515
STARLINK-4715           
1 53801U 22111AE  23361.08700482 -.00001676  00000+0 -87244-4 0  9998
2 53801  53.2178 272.0480 0001584  93.6777 266.4396 15.08839212 72492
STARLINK-4726           
1 53802U 22111AF  23361.16693667  .00001335  00000+0  10195-3 0  9994
2 53802  53.2176 271.1404 0001655  92.3122 267.8060 15.08852867 72513
STARLINK-4727           
1 53803U 22111AG  23361.11498798  .00000507  00000+0  49936-4 0  9994
2 53803  53.2170 256.5499 0001649  95.7542 264.3638 15.08842445 72711
STARLINK-4729           
1 53804U 22111AH  23360.89418927 -.00000893  00000+0 -38033-4 0  9991
2 53804  53.2170 267.2834 0001628 113.0778 247.0386 15.08843197 72540
STARLINK-4763           
1 53805U 22111AJ  23360.99083473 -.00000374  00000+0 -53845-5 0  9990
2 53805  53.2171 257.1963 0001457  87.6391 272.4767 15.08843568 72693
STARLINK-4768           
1 53806U 22111AK  23361.09655927  .00000870  00000+0  72760-4 0  9997
2 53806  53.2171 256.4321 0001436  91.1614 268.9542 15.08847140 72713
BLUEWALKER 3            
1 53807U 22111AL  23361.14653879  .00007027  00000+0  30483-3 0  9994
2 53807  53.2459 269.2534 0008065 294.5256  65.4902 15.23423682 71837
